ISS OBJECT XW           
1 66910U 98067XW  26062.13878020  .00130651  00000+0  12090-2 0  9996
2 66910  51.6245  98.8999 0004921  49.4010 310.7414 15.66585333 14159
ISS OBJECT XX           
1 66911U 98067XX  26061.40259724  .00209832  00000+0  15591-2 0  9997
2 66911  51.6217 101.4735 0006901  40.4383 319.7127 15.71628066 14047
ISS OBJECT XY           
1 66912U 98067XY  26062.12392627  .00089006  00000+0  98226-3 0  9994
2 66912  51.6265 100.3145 0002849  52.7988 307.3266 15.62320418 14124
ISS OBJECT XZ           
1 67683U 98067XZ  26062.09339650  .00038862  00000+0  65554-3 0  9995
2 67683  51.6311 104.6116 0009500 163.9375 196.1917 15.51220688  3764
GXIBA-1                 
1 67684U 98067YA  26061.49636616  .00076064  00000+0  11883-2 0  9992
2 67684  51.6300 107.3750 0011044 152.3200 207.8380 15.53047483  3678
CORAL                   
1 67685U 98067YB  26061.38181274  .00046607  00000+0  77682-3 0  9996
2 67685  51.6315 108.1094 0011582 157.7573 202.3921 15.51449802  3652
ISS OBJECT YC           
1 67686U 98067YC  26061.37845320  .00051991  00000+0  85445-3 0  9993
2 67686  51.6316 108.0894 0007717 125.5885 234.5825 15.51837466  3652
LEOPARD                 
1 67687U 98067YD  26061.64081302  .00041373  00000+0  69517-3 0  9991
2 67687  51.6316 106.8408 0007695 130.3148 229.8515 15.51318584  3615
ISS OBJECT YE           
1 67688U 98067YE  26061.50874384  .00050750  00000+0  83946-3 0  9998
2 67688  51.6317 107.4591 0007639 126.6437 233.5256 15.51667522  3594
CREW DRAGON 12          
1 67796U 26031A   26061.93054995  .00009325  00000+0  18075-3 0  9998
2 67796  51.6319 105.7724 0008215 150.8374 209.3074 15.48408287555021
